COSMOS 2251 DEB         
1 35032U 93036AGV 17345.46180687  .00000479  00000-0  14606-3 0  9994
2 35032  73.8559 126.6268 0085979 198.3467 219.8435 14.42745296454064
